BANDWAGON-4 OBJECT P    
1 66306U 25248P   26176.72034971  .00020652  00000+0  75821-3 0  9997
2 66306  45.4017  67.5181 0012134 118.2975 241.9140 15.27622694 35908
BANDWAGON-4 OBJECT Q    
1 66307U 25248Q   26176.74161721  .00020326  00000+0  75176-3 0  9995
2 66307  45.3905  67.5608 0010094 114.7737 245.4204 15.27409026 35911
TOMORROW-S8             
1 66308U 25248R   26176.77587058  .00005300  00000+0  25027-3 0  9999
2 66308  45.3966  75.1579 0003698  74.7418 285.3877 15.20572973 35828
TOMORROW-S9             
1 66309U 25248S   26176.74218959  .00004723  00000+0  22432-3 0  9993
2 66309  45.4052  75.8946 0002499 116.4663 243.6480 15.20587126 35817
CMS-03 (GSAT-7R)        
1 66311U 25249B   26177.18125285 -.00000065  00000+0  00000+0 0  9994
2 66311   0.0693 264.1310 0002191 158.4895 350.9074  1.00269326  2433
YAOGAN-46               
1 66313U 25250A   26175.87253656 -.00000038  00000+0  00000+0 0  9996
2 66313  20.0858 333.0121 0004655 144.7338 215.3136  5.31203799 12505
SENTINEL-1D             
1 66315U 25251A   26177.28701872  .00000031  00000+0  16390-4 0  9990
2 66315  98.1826 184.5186 0001364  89.5988 270.5368 14.59198074 34052
QPS-SAR-14 (YACHIHOKO-I)
1 66316U 25252A   26176.78622458  .00003897  00000+0  32460-3 0  9996
2 66316  42.0034  84.5439 0007044 305.0880  54.9285 14.99750282 34804
STARLINK-35442          
1 66319U 25253A   26176.79257784 -.00004366  00000+0 -14914-3 0  9995
2 66319  43.0071 322.3328 0002506 250.6214 109.4367 15.27589924 36773
STARLINK-34616          
1 66320U 25253B   26176.86937613  .00022724  00000+0  83200-3 0  9991
2 66320  42.9987 321.1830 0001591 252.2739 107.7939 15.27609561 36874
STARLINK-34615          
1 66321U 25253C   26176.76429908  .00036561  00000+0  13302-2 0  9993
2 66321  43.0028 322.0902 0001584 270.6441  89.4229 15.27614283 36773
STARLINK-35292          
1 66322U 25253D   26176.75274003  .00036373  00000+0  13234-2 0  9992
2 66322  43.0004 322.0309 0001600 260.0335 100.0336 15.27614333 36778
STARLINK-35309          
1 66323U 25253E   26176.85924418  .00025941  00000+0  94799-3 0  9991
2 66323  42.9993 321.9680 0000965 266.5089  93.5652 15.27610838 36788
STARLINK-35506          
1 66324U 25253F   26176.80785043  .00014259  00000+0  52647-3 0  9992
2 66324  43.0016 321.5795 0001419 282.0486  78.0207 15.27593208 36784
STARLINK-35504          
1 66325U 25253G   26176.79642901  .00022887  00000+0  83751-3 0  9992
2 66325  43.0034 322.3606 0001500 272.9120  87.1560 15.27624091 36776
STARLINK-35479          
1 66326U 25253H   26176.70662911  .00018565  00000+0  68195-3 0  9990
2 66326  43.0014 322.5398 0003115 286.0326  74.0183 15.27602819 36762
STARLINK-35507          
1 66327U 25253J   26176.81555519  .00023260  00000+0  85147-3 0  9992
2 66327  43.0014 321.6379 0001700 267.8255  92.2402 15.27604596 36780
STARLINK-35460          
1 66328U 25253K   26176.85410306  .00027388  00000+0  10001-2 0  9992
2 66328  43.0023 321.9310 0001722 265.2617  94.8038 15.27613740 36781
STARLINK-35505          
1 66329U 25253L   26176.83354131  .00039340  00000+0  14298-2 0  9997
2 66329  43.0022 321.7723 0001417 269.6985  90.3704 15.27618306 36788
STARLINK-35512          
1 66330U 25253M   26176.78229777  .00019530  00000+0  71664-3 0  9990
2 66330  43.0016 322.2521 0001474 265.6797  94.3886 15.27612940 36777
STARLINK-35257          
1 66331U 25253N   26176.68093479  .00023279  00000+0  85176-3 0  9996
2 66331  43.0000 322.3412 0001678 269.8692  90.1968 15.27620037 36767
STARLINK-35322          
1 66332U 25253P   26176.75659425  .00023812  00000+0  87141-3 0  9991
2 66332  43.0001 322.0577 0001415 262.8180  97.2511 15.27603098 36773
STARLINK-35400          
1 66333U 25253Q   26176.73618619  .00028842  00000+0  10526-2 0  9990
2 66333  43.0019 322.7635 0001863 277.9880  82.0760 15.27609368 36769
STARLINK-35407          
1 66334U 25253R   26176.68350162  .00026205  00000+0  95790-3 0  9999
2 66334  43.0023 322.3694 0001786 272.6548  87.4099 15.27596888 36769
STARLINK-35417          
1 66335U 25253S   26176.77073085  .00038611  00000+0  14040-2 0  9998
2 66335  43.0027 322.1622 0001582 279.9606  80.1067 15.27610422 36779
STARLINK-35404          
1 66336U 25253T   26176.76173297  .00035511  00000+0  12923-2 0  9998
2 66336  43.0018 322.0868 0001774 271.7498  88.3150 15.27615332 36771
STARLINK-34783          
1 66337U 25253U   26176.73489857  .00032646  00000+0  11893-2 0  9999
2 66337  43.0042 322.7550 0001632 272.7918  87.2747 15.27616904 36760
STARLINK-35477          
1 66338U 25253V   26177.25002315  .00025725  00000+0  94225-3 0  9999
2 66338  43.0008 319.3210 0001538 282.8012 252.6907 15.27539826  5769
STARLINK-35443          
1 66339U 25253W   26176.76687410  .00039746  00000+0  14443-2 0  9991
2 66339  43.0010 322.1282 0001584 269.5878  90.4793 15.27619549 36774
STARLINK-35218          
1 66340U 25253X   26176.85539035  .00032656  00000+0  11898-2 0  9996
2 66340  43.0012 321.9359 0000932 292.6120  67.4633 15.27613323 36785
