OBJECT_NAME,OBJECT_ID,EPOCH,MEAN_MOTION,ECCENTRICITY,INCLINATION,RA_OF_ASC_NODE,ARG_OF_PERICENTER,MEAN_ANOMALY,EPHEMERIS_TYPE,CLASSIFICATION_TYPE,NORAD_CAT_ID,ELEMENT_SET_NO,REV_AT_EPOCH,BSTAR,MEAN_MOTION_DOT,MEAN_MOTION_DDOT
BANDWAGON-4 OBJECT P,2025-248P,2026-06-25T17:17:18.214944,15.27622694,.0012134,45.4017,67.5181,118.2975,241.9140,0,U,66306,999,3590,.75821175E-3,.20652E-3,0
BANDWAGON-4 OBJECT Q,2025-248Q,2026-06-25T17:47:55.726944,15.27409026,.00100943,45.3905,67.5608,114.7737,245.4204,0,U,66307,999,3591,.75175998E-3,.20326E-3,0
TOMORROW-S8,2025-248R,2026-06-25T18:37:15.218112,15.20572973,.00036985,45.3966,75.1579,74.7418,285.3877,0,U,66308,999,3582,.25027124E-3,.53E-4,0
TOMORROW-S9,2025-248S,2026-06-25T17:48:45.180576,15.20587126,.00024999,45.4052,75.8946,116.4663,243.6480,0,U,66309,999,3581,.22432222E-3,.4723E-4,0
CMS-03 (GSAT-7R),2025-249B,2026-06-26T04:21:00.246240,1.00269326,.00021917,0.0693,264.1310,158.4895,350.9074,0,U,66311,999,243,0,-.65E-6,0
YAOGAN-46,2025-250A,2026-06-24T20:56:27.158784,5.31203799,.0004655,20.0858,333.0121,144.7338,215.3136,0,U,66313,999,1250,0,-.38E-6,0
SENTINEL-1D,2025-251A,2026-06-26T06:53:18.417408,14.59198074,.00013644,98.1826,184.5186,89.5988,270.5368,0,U,66315,999,3405,.16390239E-4,.31E-6,0
QPS-SAR-14 (YACHIHOKO-I),2025-252A,2026-06-25T18:52:09.803712,14.99750282,.00070447,42.0034,84.5439,305.0880,54.9285,0,U,66316,999,3480,.32459714E-3,.3897E-4,0
STARLINK-35442,2025-253A,2026-06-25T19:01:18.725376,15.27589924,.00025066,43.0071,322.3328,250.6214,109.4367,0,U,66319,999,3677,-.14914066E-3,-.4366E-4,0
STARLINK-34616,2025-253B,2026-06-25T20:51:54.097632,15.27609561,.00015915,42.9987,321.1830,252.2739,107.7939,0,U,66320,999,3687,.83199643E-3,.22724E-3,0
STARLINK-34615,2025-253C,2026-06-25T18:20:35.440512,15.27614283,.00015846,43.0028,322.0902,270.6441,89.4229,0,U,66321,999,3677,.13301533E-2,.36561E-3,0
STARLINK-35292,2025-253D,2026-06-25T18:03:56.738592,15.27614333,.00016001,43.0004,322.0309,260.0335,100.0336,0,U,66322,999,3677,.13233931E-2,.36373E-3,0
STARLINK-35309,2025-253E,2026-06-25T20:37:18.697152,15.27610838,.00009659,42.9993,321.9680,266.5089,93.5652,0,U,66323,999,3678,.94798743E-3,.25941E-3,0
STARLINK-35506,2025-253F,2026-06-25T19:23:18.277152,15.27593208,.00014194,43.0016,321.5795,282.0486,78.0207,0,U,66324,999,3678,.52647311E-3,.14259E-3,0
STARLINK-35504,2025-253G,2026-06-25T19:06:51.466464,15.27624091,.00015006,43.0034,322.3606,272.9120,87.1560,0,U,66325,999,3677,.83750502E-3,.22887E-3,0
STARLINK-35479,2025-253H,2026-06-25T16:57:32.755104,15.27602819,.0003115,43.0014,322.5398,286.0326,74.0183,0,U,66326,999,3676,.68195455E-3,.18565E-3,0
STARLINK-35507,2025-253J,2026-06-25T19:34:23.968416,15.27604596,.00017004,43.0014,321.6379,267.8255,92.2402,0,U,66327,999,3678,.85146574E-3,.2326E-3,0
STARLINK-35460,2025-253K,2026-06-25T20:29:54.504384,15.27613740,.00017228,43.0023,321.9310,265.2617,94.8038,0,U,66328,999,3678,.10000607E-2,.27388E-3,0
STARLINK-35505,2025-253L,2026-06-25T20:00:17.969184,15.27618306,.00014177,43.0022,321.7723,269.6985,90.3704,0,U,66329,999,3678,.14298386E-2,.3934E-3,0
STARLINK-35512,2025-253M,2026-06-25T18:46:30.527328,15.27612940,.00014742,43.0016,322.2521,265.6797,94.3886,0,U,66330,999,3677,.71663593E-3,.1953E-3,0
STARLINK-35257,2025-253N,2026-06-25T16:20:32.765856,15.27620037,.00016785,43.0000,322.3412,269.8692,90.1968,0,U,66331,999,3676,.85176345E-3,.23279E-3,0
STARLINK-35322,2025-253P,2026-06-25T18:09:29.743200,15.27603098,.00014158,43.0001,322.0577,262.8180,97.2511,0,U,66332,999,3677,.87141362E-3,.23812E-3,0
STARLINK-35400,2025-253Q,2026-06-25T17:40:06.486816,15.27609368,.00018631,43.0019,322.7635,277.9880,82.0760,0,U,66333,999,3676,.10525753E-2,.28842E-3,0
STARLINK-35407,2025-253R,2026-06-25T16:24:14.539968,15.27596888,.00017864,43.0023,322.3694,272.6548,87.4099,0,U,66334,999,3676,.95790443E-3,.26205E-3,0
STARLINK-35417,2025-253S,2026-06-25T18:29:51.145440,15.27610422,.00015828,43.0027,322.1622,279.9606,80.1067,0,U,66335,999,3677,.14039924E-2,.38611E-3,0
STARLINK-35404,2025-253T,2026-06-25T18:16:53.728608,15.27615332,.00017745,43.0018,322.0868,271.7498,88.3150,0,U,66336,999,3677,.12923447E-2,.35511E-3,0
STARLINK-34783,2025-253U,2026-06-25T17:38:15.236448,15.27616904,.00016325,43.0042,322.7550,272.7918,87.2747,0,U,66337,999,3676,.11892739E-2,.32646E-3,0
STARLINK-35477,2025-253V,2026-06-26T06:00:02.000160,15.27539826,.00015381,43.0008,319.3210,282.8012,252.6907,0,U,66338,999,576,.94224909E-3,.25725E-3,0
STARLINK-35443,2025-253W,2026-06-25T18:24:17.922240,15.27619549,.00015846,43.0010,322.1282,269.5878,90.4793,0,U,66339,999,3677,.14443324E-2,.39746E-3,0
STARLINK-35218,2025-253X,2026-06-25T20:31:45.726240,15.27613323,.00009325,43.0012,321.9359,292.6120,67.4633,0,U,66340,999,3678,.11897811E-2,.32656E-3,0
